{
  "type": "FeatureCollection",
  "name": "graph",
  "features": [
    {
      "type": "Feature",
      "geometry": {
        "type": "Point",
        "coordinates": [
          0.991,
          0.009
        ]
      },
      "properties": {
        "id": 0,
        "frame": "map"
      }
    },
    {
      "type": "Feature",
      "geometry": {
        "type": "Point",
        "coordinates": [
          1.979,
          0.007
        ]
      },
      "properties": {
        "id": 1,
        "frame": "map"
      }
    },
    {
      "type": "Feature",
      "geometry": {
        "type": "Point",
        "coordinates": [
          1.544,
          -5.49
        ]
      },
      "properties": {
        "id": 2,
        "frame": "map"
      }
    },
    {
      "type": "Feature",
      "geometry": {
        "type": "Point",
        "coordinates": [
          1.544,
          -8.9
        ]
      },
      "properties": {
        "id": 3,
        "frame": "map"
      }
    },
    {
      "type": "Feature",
      "geometry": {
        "type": "Point",
        "coordinates": [
          -0.102,
          -8.84
        ]
      },
      "properties": {
        "id": 4,
        "frame": "map"
      }
    },
    {
      "type": "Feature",
      "geometry": {
        "type": "Point",
        "coordinates": [
          -0.111,
          -6.322
        ]
      },
      "properties": {
        "id": 5,
        "frame": "map"
      }
    },
    {
      "type": "Feature",
      "geometry": {
        "type": "Point",
        "coordinates": [
          -2.081,
          -5.671
        ]
      },
      "properties": {
        "id": 6,
        "frame": "map"
      }
    },
    {
      "type": "Feature",
      "geometry": {
        "type": "Point",
        "coordinates": [
          -3.399,
          -4.853
        ]
      },
      "properties": {
        "id": 7,
        "frame": "map"
      }
    },
    {
      "type": "Feature",
      "geometry": {
        "type": "Point",
        "coordinates": [
          -3.461,
          -2.871
        ]
      },
      "properties": {
        "id": 8,
        "frame": "map"
      }
    },
    {
      "type": "Feature",
      "geometry": {
        "type": "Point",
        "coordinates": [
          -2.931,
          -0.704
        ]
      },
      "properties": {
        "id": 9,
        "frame": "map"
      }
    },
    {
      "type": "Feature",
      "geometry": {
        "type": "Point",
        "coordinates": [
          -1.106,
          -0.841
        ]
      },
      "properties": {
        "id": 10,
        "frame": "map"
      }
    },
    {
      "type": "Feature",
      "geometry": {
        "type": "Point",
        "coordinates": [
          -0.526,
          -3.016
        ]
      },
      "properties": {
        "id": 11,
        "frame": "map"
      }
    },
    {
      "type": "Feature",
      "geometry": {
        "type": "MultiLineString",
        "coordinates": [
          [
            [
              0.991,
              0.009
            ],
            [
              1.979,
              0.007
            ]
          ]
        ]
      },
      "properties": {
        "id": 100,
        "startid": 0,
        "endid": 1,
        "cost": 0.0,
        "overridable": true
      }
    },
    {
      "type": "Feature",
      "geometry": {
        "type": "MultiLineString",
        "coordinates": [
          [
            [
              1.979,
              0.007
            ],
            [
              0.991,
              0.009
            ]
          ]
        ]
      },
      "properties": {
        "id": 101,
        "startid": 1,
        "endid": 0,
        "cost": 0.0,
        "overridable": true
      }
    },
    {
      "type": "Feature",
      "geometry": {
        "type": "MultiLineString",
        "coordinates": [
          [
            [
              1.979,
              0.007
            ],
            [
              1.544,
              -5.49
            ]
          ]
        ]
      },
      "properties": {
        "id": 102,
        "startid": 1,
        "endid": 2,
        "cost": 0.0,
        "overridable": true
      }
    },
    {
      "type": "Feature",
      "geometry": {
        "type": "MultiLineString",
        "coordinates": [
          [
            [
              1.544,
              -5.49
            ],
            [
              1.979,
              0.007
            ]
          ]
        ]
      },
      "properties": {
        "id": 103,
        "startid": 2,
        "endid": 1,
        "cost": 0.0,
        "overridable": true
      }
    },
    {
      "type": "Feature",
      "geometry": {
        "type": "MultiLineString",
        "coordinates": [
          [
            [
              1.544,
              -5.49
            ],
            [
              1.544,
              -8.9
            ]
          ]
        ]
      },
      "properties": {
        "id": 104,
        "startid": 2,
        "endid": 3,
        "cost": 0.0,
        "overridable": true
      }
    },
    {
      "type": "Feature",
      "geometry": {
        "type": "MultiLineString",
        "coordinates": [
          [
            [
              1.544,
              -8.9
            ],
            [
              1.544,
              -5.49
            ]
          ]
        ]
      },
      "properties": {
        "id": 105,
        "startid": 3,
        "endid": 2,
        "cost": 0.0,
        "overridable": true
      }
    },
    {
      "type": "Feature",
      "geometry": {
        "type": "MultiLineString",
        "coordinates": [
          [
            [
              1.544,
              -8.9
            ],
            [
              -0.102,
              -8.84
            ]
          ]
        ]
      },
      "properties": {
        "id": 106,
        "startid": 3,
        "endid": 4,
        "cost": 0.0,
        "overridable": true
      }
    },
    {
      "type": "Feature",
      "geometry": {
        "type": "MultiLineString",
        "coordinates": [
          [
            [
              -0.102,
              -8.84
            ],
            [
              1.544,
              -8.9
            ]
          ]
        ]
      },
      "properties": {
        "id": 107,
        "startid": 4,
        "endid": 3,
        "cost": 0.0,
        "overridable": true
      }
    },
    {
      "type": "Feature",
      "geometry": {
        "type": "MultiLineString",
        "coordinates": [
          [
            [
              -0.102,
              -8.84
            ],
            [
              -0.111,
              -6.322
            ]
          ]
        ]
      },
      "properties": {
        "id": 108,
        "startid": 4,
        "endid": 5,
        "cost": 0.0,
        "overridable": true
      }
    },
    {
      "type": "Feature",
      "geometry": {
        "type": "MultiLineString",
        "coordinates": [
          [
            [
              -0.111,
              -6.322
            ],
            [
              -0.102,
              -8.84
            ]
          ]
        ]
      },
      "properties": {
        "id": 109,
        "startid": 5,
        "endid": 4,
        "cost": 0.0,
        "overridable": true
      }
    },
    {
      "type": "Feature",
      "geometry": {
        "type": "MultiLineString",
        "coordinates": [
          [
            [
              -0.111,
              -6.322
            ],
            [
              -2.081,
              -5.671
            ]
          ]
        ]
      },
      "properties": {
        "id": 110,
        "startid": 5,
        "endid": 6,
        "cost": 0.0,
        "overridable": true
      }
    },
    {
      "type": "Feature",
      "geometry": {
        "type": "MultiLineString",
        "coordinates": [
          [
            [
              -2.081,
              -5.671
            ],
            [
              -0.111,
              -6.322
            ]
          ]
        ]
      },
      "properties": {
        "id": 111,
        "startid": 6,
        "endid": 5,
        "cost": 0.0,
        "overridable": true
      }
    },
    {
      "type": "Feature",
      "geometry": {
        "type": "MultiLineString",
        "coordinates": [
          [
            [
              -2.081,
              -5.671
            ],
            [
              -3.399,
              -4.853
            ]
          ]
        ]
      },
      "properties": {
        "id": 112,
        "startid": 6,
        "endid": 7,
        "cost": 0.0,
        "overridable": true
      }
    },
    {
      "type": "Feature",
      "geometry": {
        "type": "MultiLineString",
        "coordinates": [
          [
            [
              -3.399,
              -4.853
            ],
            [
              -2.081,
              -5.671
            ]
          ]
        ]
      },
      "properties": {
        "id": 113,
        "startid": 7,
        "endid": 6,
        "cost": 0.0,
        "overridable": true
      }
    },
    {
      "type": "Feature",
      "geometry": {
        "type": "MultiLineString",
        "coordinates": [
          [
            [
              -3.399,
              -4.853
            ],
            [
              -3.461,
              -2.871
            ]
          ]
        ]
      },
      "properties": {
        "id": 114,
        "startid": 7,
        "endid": 8,
        "cost": 0.0,
        "overridable": true
      }
    },
    {
      "type": "Feature",
      "geometry": {
        "type": "MultiLineString",
        "coordinates": [
          [
            [
              -3.461,
              -2.871
            ],
            [
              -3.399,
              -4.853
            ]
          ]
        ]
      },
      "properties": {
        "id": 115,
        "startid": 8,
        "endid": 7,
        "cost": 0.0,
        "overridable": true
      }
    },
    {
      "type": "Feature",
      "geometry": {
        "type": "MultiLineString",
        "coordinates": [
          [
            [
              -3.461,
              -2.871
            ],
            [
              -2.931,
              -0.704
            ]
          ]
        ]
      },
      "properties": {
        "id": 116,
        "startid": 8,
        "endid": 9,
        "cost": 0.0,
        "overridable": true
      }
    },
    {
      "type": "Feature",
      "geometry": {
        "type": "MultiLineString",
        "coordinates": [
          [
            [
              -2.931,
              -0.704
            ],
            [
              -3.461,
              -2.871
            ]
          ]
        ]
      },
      "properties": {
        "id": 117,
        "startid": 9,
        "endid": 8,
        "cost": 0.0,
        "overridable": true
      }
    },
    {
      "type": "Feature",
      "geometry": {
        "type": "MultiLineString",
        "coordinates": [
          [
            [
              -2.931,
              -0.704
            ],
            [
              -1.106,
              -0.841
            ]
          ]
        ]
      },
      "properties": {
        "id": 118,
        "startid": 9,
        "endid": 10,
        "cost": 0.0,
        "overridable": true
      }
    },
    {
      "type": "Feature",
      "geometry": {
        "type": "MultiLineString",
        "coordinates": [
          [
            [
              -1.106,
              -0.841
            ],
            [
              -2.931,
              -0.704
            ]
          ]
        ]
      },
      "properties": {
        "id": 119,
        "startid": 10,
        "endid": 9,
        "cost": 0.0,
        "overridable": true
      }
    },
    {
      "type": "Feature",
      "geometry": {
        "type": "MultiLineString",
        "coordinates": [
          [
            [
              -1.106,
              -0.841
            ],
            [
              -0.526,
              -3.016
            ]
          ]
        ]
      },
      "properties": {
        "id": 120,
        "startid": 10,
        "endid": 11,
        "cost": 0.0,
        "overridable": true
      }
    },
    {
      "type": "Feature",
      "geometry": {
        "type": "MultiLineString",
        "coordinates": [
          [
            [
              -0.526,
              -3.016
            ],
            [
              -1.106,
              -0.841
            ]
          ]
        ]
      },
      "properties": {
        "id": 121,
        "startid": 11,
        "endid": 10,
        "cost": 0.0,
        "overridable": true
      }
    }
  ]
}