{
  "type": "FeatureCollection",
  "name": "graph",
  "features": [
    {
      "type": "Feature",
      "geometry": {
        "type": "Point",
        "coordinates": [
          0.215,
          0.015
        ]
      },
      "properties": {
        "id": 0,
        "frame": "map"
      }
    },
    {
      "type": "Feature",
      "geometry": {
        "type": "Point",
        "coordinates": [
          1.525,
          -0.785
        ]
      },
      "properties": {
        "id": 1,
        "frame": "map"
      }
    },
    {
      "type": "Feature",
      "geometry": {
        "type": "Point",
        "coordinates": [
          1.341,
          -3.697
        ]
      },
      "properties": {
        "id": 2,
        "frame": "map"
      }
    },
    {
      "type": "Feature",
      "geometry": {
        "type": "Point",
        "coordinates": [
          1.486,
          -6.765
        ]
      },
      "properties": {
        "id": 3,
        "frame": "map"
      }
    },
    {
      "type": "Feature",
      "geometry": {
        "type": "Point",
        "coordinates": [
          1.271,
          -8.741
        ]
      },
      "properties": {
        "id": 4,
        "frame": "map"
      }
    },
    {
      "type": "Feature",
      "geometry": {
        "type": "Point",
        "coordinates": [
          -0.278,
          -7.48
        ]
      },
      "properties": {
        "id": 5,
        "frame": "map"
      }
    },
    {
      "type": "Feature",
      "geometry": {
        "type": "Point",
        "coordinates": [
          -0.517,
          -5.747
        ]
      },
      "properties": {
        "id": 6,
        "frame": "map"
      }
    },
    {
      "type": "Feature",
      "geometry": {
        "type": "Point",
        "coordinates": [
          -3.044,
          -5.246
        ]
      },
      "properties": {
        "id": 7,
        "frame": "map"
      }
    },
    {
      "type": "Feature",
      "geometry": {
        "type": "Point",
        "coordinates": [
          -3.763,
          -3.08
        ]
      },
      "properties": {
        "id": 8,
        "frame": "map"
      }
    },
    {
      "type": "Feature",
      "geometry": {
        "type": "Point",
        "coordinates": [
          -2.804,
          -0.693
        ]
      },
      "properties": {
        "id": 9,
        "frame": "map"
      }
    },
    {
      "type": "Feature",
      "geometry": {
        "type": "Point",
        "coordinates": [
          -0.852,
          -2.096
        ]
      },
      "properties": {
        "id": 10,
        "frame": "map"
      }
    },
    {
      "type": "Feature",
      "geometry": {
        "type": "MultiLineString",
        "coordinates": [
          [
            [
              0.215,
              0.015
            ],
            [
              1.525,
              -0.785
            ]
          ]
        ]
      },
      "properties": {
        "id": 100,
        "startid": 0,
        "endid": 1,
        "cost": 0.0,
        "overridable": true
      }
    },
    {
      "type": "Feature",
      "geometry": {
        "type": "MultiLineString",
        "coordinates": [
          [
            [
              1.525,
              -0.785
            ],
            [
              0.215,
              0.015
            ]
          ]
        ]
      },
      "properties": {
        "id": 101,
        "startid": 1,
        "endid": 0,
        "cost": 0.0,
        "overridable": true
      }
    },
    {
      "type": "Feature",
      "geometry": {
        "type": "MultiLineString",
        "coordinates": [
          [
            [
              1.525,
              -0.785
            ],
            [
              1.341,
              -3.697
            ]
          ]
        ]
      },
      "properties": {
        "id": 102,
        "startid": 1,
        "endid": 2,
        "cost": 0.0,
        "overridable": true
      }
    },
    {
      "type": "Feature",
      "geometry": {
        "type": "MultiLineString",
        "coordinates": [
          [
            [
              1.341,
              -3.697
            ],
            [
              1.525,
              -0.785
            ]
          ]
        ]
      },
      "properties": {
        "id": 103,
        "startid": 2,
        "endid": 1,
        "cost": 0.0,
        "overridable": true
      }
    },
    {
      "type": "Feature",
      "geometry": {
        "type": "MultiLineString",
        "coordinates": [
          [
            [
              1.341,
              -3.697
            ],
            [
              1.486,
              -6.765
            ]
          ]
        ]
      },
      "properties": {
        "id": 104,
        "startid": 2,
        "endid": 3,
        "cost": 0.0,
        "overridable": true
      }
    },
    {
      "type": "Feature",
      "geometry": {
        "type": "MultiLineString",
        "coordinates": [
          [
            [
              1.486,
              -6.765
            ],
            [
              1.341,
              -3.697
            ]
          ]
        ]
      },
      "properties": {
        "id": 105,
        "startid": 3,
        "endid": 2,
        "cost": 0.0,
        "overridable": true
      }
    },
    {
      "type": "Feature",
      "geometry": {
        "type": "MultiLineString",
        "coordinates": [
          [
            [
              1.486,
              -6.765
            ],
            [
              1.271,
              -8.741
            ]
          ]
        ]
      },
      "properties": {
        "id": 106,
        "startid": 3,
        "endid": 4,
        "cost": 0.0,
        "overridable": true
      }
    },
    {
      "type": "Feature",
      "geometry": {
        "type": "MultiLineString",
        "coordinates": [
          [
            [
              1.271,
              -8.741
            ],
            [
              1.486,
              -6.765
            ]
          ]
        ]
      },
      "properties": {
        "id": 107,
        "startid": 4,
        "endid": 3,
        "cost": 0.0,
        "overridable": true
      }
    },
    {
      "type": "Feature",
      "geometry": {
        "type": "MultiLineString",
        "coordinates": [
          [
            [
              1.271,
              -8.741
            ],
            [
              -0.278,
              -7.48
            ]
          ]
        ]
      },
      "properties": {
        "id": 108,
        "startid": 4,
        "endid": 5,
        "cost": 0.0,
        "overridable": true
      }
    },
    {
      "type": "Feature",
      "geometry": {
        "type": "MultiLineString",
        "coordinates": [
          [
            [
              -0.278,
              -7.48
            ],
            [
              1.271,
              -8.741
            ]
          ]
        ]
      },
      "properties": {
        "id": 109,
        "startid": 5,
        "endid": 4,
        "cost": 0.0,
        "overridable": true
      }
    },
    {
      "type": "Feature",
      "geometry": {
        "type": "MultiLineString",
        "coordinates": [
          [
            [
              -0.278,
              -7.48
            ],
            [
              -0.517,
              -5.747
            ]
          ]
        ]
      },
      "properties": {
        "id": 110,
        "startid": 5,
        "endid": 6,
        "cost": 0.0,
        "overridable": true
      }
    },
    {
      "type": "Feature",
      "geometry": {
        "type": "MultiLineString",
        "coordinates": [
          [
            [
              -0.517,
              -5.747
            ],
            [
              -0.278,
              -7.48
            ]
          ]
        ]
      },
      "properties": {
        "id": 111,
        "startid": 6,
        "endid": 5,
        "cost": 0.0,
        "overridable": true
      }
    },
    {
      "type": "Feature",
      "geometry": {
        "type": "MultiLineString",
        "coordinates": [
          [
            [
              -0.517,
              -5.747
            ],
            [
              -3.044,
              -5.246
            ]
          ]
        ]
      },
      "properties": {
        "id": 112,
        "startid": 6,
        "endid": 7,
        "cost": 0.0,
        "overridable": true
      }
    },
    {
      "type": "Feature",
      "geometry": {
        "type": "MultiLineString",
        "coordinates": [
          [
            [
              -3.044,
              -5.246
            ],
            [
              -0.517,
              -5.747
            ]
          ]
        ]
      },
      "properties": {
        "id": 113,
        "startid": 7,
        "endid": 6,
        "cost": 0.0,
        "overridable": true
      }
    },
    {
      "type": "Feature",
      "geometry": {
        "type": "MultiLineString",
        "coordinates": [
          [
            [
              -3.044,
              -5.246
            ],
            [
              -3.763,
              -3.08
            ]
          ]
        ]
      },
      "properties": {
        "id": 114,
        "startid": 7,
        "endid": 8,
        "cost": 0.0,
        "overridable": true
      }
    },
    {
      "type": "Feature",
      "geometry": {
        "type": "MultiLineString",
        "coordinates": [
          [
            [
              -3.763,
              -3.08
            ],
            [
              -3.044,
              -5.246
            ]
          ]
        ]
      },
      "properties": {
        "id": 115,
        "startid": 8,
        "endid": 7,
        "cost": 0.0,
        "overridable": true
      }
    },
    {
      "type": "Feature",
      "geometry": {
        "type": "MultiLineString",
        "coordinates": [
          [
            [
              -3.763,
              -3.08
            ],
            [
              -2.804,
              -0.693
            ]
          ]
        ]
      },
      "properties": {
        "id": 116,
        "startid": 8,
        "endid": 9,
        "cost": 0.0,
        "overridable": true
      }
    },
    {
      "type": "Feature",
      "geometry": {
        "type": "MultiLineString",
        "coordinates": [
          [
            [
              -2.804,
              -0.693
            ],
            [
              -3.763,
              -3.08
            ]
          ]
        ]
      },
      "properties": {
        "id": 117,
        "startid": 9,
        "endid": 8,
        "cost": 0.0,
        "overridable": true
      }
    },
    {
      "type": "Feature",
      "geometry": {
        "type": "MultiLineString",
        "coordinates": [
          [
            [
              -2.804,
              -0.693
            ],
            [
              -0.852,
              -2.096
            ]
          ]
        ]
      },
      "properties": {
        "id": 118,
        "startid": 9,
        "endid": 10,
        "cost": 0.0,
        "overridable": true
      }
    },
    {
      "type": "Feature",
      "geometry": {
        "type": "MultiLineString",
        "coordinates": [
          [
            [
              -0.852,
              -2.096
            ],
            [
              -2.804,
              -0.693
            ]
          ]
        ]
      },
      "properties": {
        "id": 119,
        "startid": 10,
        "endid": 9,
        "cost": 0.0,
        "overridable": true
      }
    }
  ]
}