{
  "type": "FeatureCollection",
  "name": "graph",
  "features": [
    {
      "type": "Feature",
      "geometry": {
        "type": "Point",
        "coordinates": [
          0.231,
          0.011
        ]
      },
      "properties": {
        "id": 0,
        "frame": "map"
      }
    },
    {
      "type": "Feature",
      "geometry": {
        "type": "Point",
        "coordinates": [
          1.388,
          -0.003
        ]
      },
      "properties": {
        "id": 1,
        "frame": "map"
      }
    },
    {
      "type": "Feature",
      "geometry": {
        "type": "Point",
        "coordinates": [
          1.533,
          -6.324
        ]
      },
      "properties": {
        "id": 2,
        "frame": "map"
      }
    },
    {
      "type": "Feature",
      "geometry": {
        "type": "Point",
        "coordinates": [
          -0.09,
          -9.294
        ]
      },
      "properties": {
        "id": 3,
        "frame": "map"
      }
    },
    {
      "type": "Feature",
      "geometry": {
        "type": "Point",
        "coordinates": [
          -3.746,
          -9.468
        ]
      },
      "properties": {
        "id": 4,
        "frame": "map"
      }
    },
    {
      "type": "Feature",
      "geometry": {
        "type": "Point",
        "coordinates": [
          -3.489,
          -2.124
        ]
      },
      "properties": {
        "id": 5,
        "frame": "map"
      }
    },
    {
      "type": "Feature",
      "geometry": {
        "type": "Point",
        "coordinates": [
          -1.239,
          -3.998
        ]
      },
      "properties": {
        "id": 6,
        "frame": "map"
      }
    },
    {
      "type": "Feature",
      "geometry": {
        "type": "MultiLineString",
        "coordinates": [
          [
            [
              0.231,
              0.011
            ],
            [
              1.388,
              -0.003
            ]
          ]
        ]
      },
      "properties": {
        "id": 100,
        "startid": 0,
        "endid": 1,
        "cost": 0.0,
        "overridable": true
      }
    },
    {
      "type": "Feature",
      "geometry": {
        "type": "MultiLineString",
        "coordinates": [
          [
            [
              1.388,
              -0.003
            ],
            [
              0.231,
              0.011
            ]
          ]
        ]
      },
      "properties": {
        "id": 101,
        "startid": 1,
        "endid": 0,
        "cost": 0.0,
        "overridable": true
      }
    },
    {
      "type": "Feature",
      "geometry": {
        "type": "MultiLineString",
        "coordinates": [
          [
            [
              1.388,
              -0.003
            ],
            [
              1.533,
              -6.324
            ]
          ]
        ]
      },
      "properties": {
        "id": 102,
        "startid": 1,
        "endid": 2,
        "cost": 0.0,
        "overridable": true
      }
    },
    {
      "type": "Feature",
      "geometry": {
        "type": "MultiLineString",
        "coordinates": [
          [
            [
              1.533,
              -6.324
            ],
            [
              1.388,
              -0.003
            ]
          ]
        ]
      },
      "properties": {
        "id": 103,
        "startid": 2,
        "endid": 1,
        "cost": 0.0,
        "overridable": true
      }
    },
    {
      "type": "Feature",
      "geometry": {
        "type": "MultiLineString",
        "coordinates": [
          [
            [
              1.533,
              -6.324
            ],
            [
              -0.09,
              -9.294
            ]
          ]
        ]
      },
      "properties": {
        "id": 104,
        "startid": 2,
        "endid": 3,
        "cost": 0.0,
        "overridable": true
      }
    },
    {
      "type": "Feature",
      "geometry": {
        "type": "MultiLineString",
        "coordinates": [
          [
            [
              -0.09,
              -9.294
            ],
            [
              1.533,
              -6.324
            ]
          ]
        ]
      },
      "properties": {
        "id": 105,
        "startid": 3,
        "endid": 2,
        "cost": 0.0,
        "overridable": true
      }
    },
    {
      "type": "Feature",
      "geometry": {
        "type": "MultiLineString",
        "coordinates": [
          [
            [
              -0.09,
              -9.294
            ],
            [
              -3.746,
              -9.468
            ]
          ]
        ]
      },
      "properties": {
        "id": 106,
        "startid": 3,
        "endid": 4,
        "cost": 0.0,
        "overridable": true
      }
    },
    {
      "type": "Feature",
      "geometry": {
        "type": "MultiLineString",
        "coordinates": [
          [
            [
              -3.746,
              -9.468
            ],
            [
              -3.489,
              -2.124
            ]
          ]
        ]
      },
      "properties": {
        "id": 107,
        "startid": 4,
        "endid": 5,
        "cost": 0.0,
        "overridable": true
      }
    },
    {
      "type": "Feature",
      "geometry": {
        "type": "MultiLineString",
        "coordinates": [
          [
            [
              -3.489,
              -2.124
            ],
            [
              -1.239,
              -3.998
            ]
          ]
        ]
      },
      "properties": {
        "id": 108,
        "startid": 5,
        "endid": 6,
        "cost": 0.0,
        "overridable": true
      }
    },
    {
      "type": "Feature",
      "geometry": {
        "type": "MultiLineString",
        "coordinates": [
          [
            [
              -3.489,
              -2.124
            ],
            [
              -0.09,
              -9.294
            ]
          ]
        ]
      },
      "properties": {
        "id": 109,
        "startid": 3,
        "endid": 6,
        "cost": 0.0,
        "overridable": true
      }
    }
  ]
}