{
  "type": "FeatureCollection",
  "name": "graph",
  "features": [
    {
      "type": "Feature",
      "geometry": {
        "type": "Point",
        "coordinates": [
          0.182,
          -0.004
        ]
      },
      "properties": {
        "id": 0,
        "frame": "map"
      }
    },
    {
      "type": "Feature",
      "geometry": {
        "type": "Point",
        "coordinates": [
          1.53,
          -0.008
        ]
      },
      "properties": {
        "id": 1,
        "frame": "map"
      }
    },
    {
      "type": "Feature",
      "geometry": {
        "type": "Point",
        "coordinates": [
          1.553,
          -4.842
        ]
      },
      "properties": {
        "id": 2,
        "frame": "map"
      }
    },
    {
      "type": "Feature",
      "geometry": {
        "type": "Point",
        "coordinates": [
          1.518,
          -9.26
        ]
      },
      "properties": {
        "id": 3,
        "frame": "map"
      }
    },
    {
      "type": "Feature",
      "geometry": {
        "type": "Point",
        "coordinates": [
          -3.616,
          -9.26
        ]
      },
      "properties": {
        "id": 4,
        "frame": "map"
      }
    },
    {
      "type": "Feature",
      "geometry": {
        "type": "Point",
        "coordinates": [
          -3.442,
          -4.924
        ]
      },
      "properties": {
        "id": 5,
        "frame": "map"
      }
    },
    {
      "type": "Feature",
      "geometry": {
        "type": "Point",
        "coordinates": [
          -0.945,
          -4.913
        ]
      },
      "properties": {
        "id": 6,
        "frame": "map"
      }
    },
    {
      "type": "Feature",
      "geometry": {
        "type": "MultiLineString",
        "coordinates": [
          [
            [
              0.182,
              -0.004
            ],
            [
              1.53,
              -0.008
            ]
          ]
        ]
      },
      "properties": {
        "id": 100,
        "startid": 0,
        "endid": 1,
        "cost": 0.0,
        "overridable": true
      }
    },
    {
      "type": "Feature",
      "geometry": {
        "type": "MultiLineString",
        "coordinates": [
          [
            [
              1.53,
              -0.008
            ],
            [
              0.182,
              -0.004
            ]
          ]
        ]
      },
      "properties": {
        "id": 101,
        "startid": 1,
        "endid": 0,
        "cost": 0.0,
        "overridable": true
      }
    },
    {
      "type": "Feature",
      "geometry": {
        "type": "MultiLineString",
        "coordinates": [
          [
            [
              1.53,
              -0.008
            ],
            [
              1.553,
              -4.842
            ]
          ]
        ]
      },
      "properties": {
        "id": 102,
        "startid": 1,
        "endid": 2,
        "cost": 0.0,
        "overridable": true
      }
    },
    {
      "type": "Feature",
      "geometry": {
        "type": "MultiLineString",
        "coordinates": [
          [
            [
              1.553,
              -4.842
            ],
            [
              1.53,
              -0.008
            ]
          ]
        ]
      },
      "properties": {
        "id": 103,
        "startid": 2,
        "endid": 1,
        "cost": 0.0,
        "overridable": true
      }
    },
    {
      "type": "Feature",
      "geometry": {
        "type": "MultiLineString",
        "coordinates": [
          [
            [
              1.553,
              -4.842
            ],
            [
              1.518,
              -9.26
            ]
          ]
        ]
      },
      "properties": {
        "id": 104,
        "startid": 2,
        "endid": 3,
        "cost": 0.0,
        "overridable": true
      }
    },
    {
      "type": "Feature",
      "geometry": {
        "type": "MultiLineString",
        "coordinates": [
          [
            [
              1.518,
              -9.26
            ],
            [
              -3.616,
              -9.26
            ]
          ]
        ]
      },
      "properties": {
        "id": 105,
        "startid": 3,
        "endid": 4,
        "cost": 0.0,
        "overridable": true
      }
    },
    {
      "type": "Feature",
      "geometry": {
        "type": "MultiLineString",
        "coordinates": [
          [
            [
              -3.616,
              -9.26
            ],
            [
              -3.442,
              -4.924
            ]
          ]
        ]
      },
      "properties": {
        "id": 106,
        "startid": 4,
        "endid": 5,
        "cost": 0.0,
        "overridable": true
      }
    },
    {
      "type": "Feature",
      "geometry": {
        "type": "MultiLineString",
        "coordinates": [
          [
            [
              -3.442,
              -4.924
            ],
            [
              -0.945,
              -4.913
            ]
          ]
        ]
      },
      "properties": {
        "id": 107,
        "startid": 5,
        "endid": 6,
        "cost": 0.0,
        "overridable": true
      }
    },
    {
      "type": "Feature",
      "geometry": {
        "type": "MultiLineString",
        "coordinates": [
          [
            [
              -0.945,
              -4.913
            ],
            [
              1.553,
              -4.842
            ]
          ]
        ]
      },
      "properties": {
        "id": 108,
        "startid": 6,
        "endid": 2,
        "cost": 0.0,
        "overridable": true
      }
    }
  ]
}