{
  "type": "FeatureCollection",
  "name": "graph",
  "features": [
    {
      "type": "Feature",
      "geometry": {
        "type": "Point",
        "coordinates": [
          -0.22333119809627533,
          -1.060479998588562
        ]
      },
      "properties": {
        "id": 0,
        "frame": "map"
      }
    },
    {
      "type": "Feature",
      "geometry": {
        "type": "Point",
        "coordinates": [
          0.18101103603839874,
          -2.1661176681518555
        ]
      },
      "properties": {
        "id": 1,
        "frame": "map"
      }
    },
    {
      "type": "Feature",
      "geometry": {
        "type": "Point",
        "coordinates": [
          1.1690900325775146,
          -2.680629253387451
        ]
      },
      "properties": {
        "id": 2,
        "frame": "map"
      }
    },
    {
      "type": "Feature",
      "geometry": {
        "type": "Point",
        "coordinates": [
          1.4420922994613647,
          -1.5790492296218872
        ]
      },
      "properties": {
        "id": 3,
        "frame": "map"
      }
    },
    {
      "type": "Feature",
      "geometry": {
        "type": "Point",
        "coordinates": [
          1.2863084077835083,
          -0.02951684594154358
        ]
      },
      "properties": {
        "id": 4,
        "frame": "map"
      }
    },
    {
      "type": "Feature",
      "geometry": {
        "type": "Point",
        "coordinates": [
          -2.155357599258423,
          -1.0658767223358154
        ]
      },
      "properties": {
        "id": 5,
        "frame": "map"
      }
    },
    {
      "type": "Feature",
      "geometry": {
        "type": "MultiLineString",
        "coordinates": []
      },
      "properties": {
        "id": 100,
        "startid": 0,
        "endid": 1,
        "cost": 0.0,
        "overridable": true
      }
    },
    {
      "type": "Feature",
      "geometry": {
        "type": "MultiLineString",
        "coordinates": []
      },
      "properties": {
        "id": 101,
        "startid": 1,
        "endid": 2,
        "cost": 0.0,
        "overridable": true
      }
    },
    {
      "type": "Feature",
      "geometry": {
        "type": "MultiLineString",
        "coordinates": []
      },
      "properties": {
        "id": 102,
        "startid": 2,
        "endid": 3,
        "cost": 0.0,
        "overridable": true
      }
    },
    {
      "type": "Feature",
      "geometry": {
        "type": "MultiLineString",
        "coordinates": []
      },
      "properties": {
        "id": 103,
        "startid": 3,
        "endid": 4,
        "cost": 0.0,
        "overridable": true
      }
    },
    {
      "type": "Feature",
      "geometry": {
        "type": "MultiLineString",
        "coordinates": []
      },
      "properties": {
        "id": 104,
        "startid": 4,
        "endid": 5,
        "cost": 0.0,
        "overridable": true
      }
    }
  ]
}